{
  "links" : {
    "next" : "https://api.nasa.gov/neo/rest/v1/neo/browse?page=8&size=20&api_key=jqAGvNAwUIBu4fl9FSOjdm3V4F7hIglRzI6pdX9d",
    "prev" : "https://api.nasa.gov/neo/rest/v1/neo/browse?page=6&size=20&api_key=jqAGvNAwUIBu4fl9FSOjdm3V4F7hIglRzI6pdX9d",
    "self" : "https://api.nasa.gov/neo/rest/v1/neo/browse?page=7&size=20&api_key=jqAGvNAwUIBu4fl9FSOjdm3V4F7hIglRzI6pdX9d"
  },
  "page" : {
    "size" : 20,
    "total_elements" : 20750,
    "total_pages" : 1038,
    "number" : 7
  },
  "near_earth_objects" : [ {
    "links" : {
      "self" : "https://api.nasa.gov/neo/rest/v1/neo/3459879?api_key=jqAGvNAwUIBu4fl9FSOjdm3V4F7hIglRzI6pdX9d"
    },
    "neo_reference_id" : "3459879",
    "name" : "(2001 SL264)",
    "designation" : "2001 SL264",
    "nasa_jpl_url" : "http://ssd.jpl.nasa.gov/sbdb.cgi?sstr=3459879",
    "absolute_magnitude_h" : 19.5,
    "estimated_diameter" : {
      "kilometers" : {
        "estimated_diameter_min" : 0.3346223745,
        "estimated_diameter_max" : 0.7482383761
      },
      "meters" : {
        "estimated_diameter_min" : 334.6223744549,
        "estimated_diameter_max" : 748.2383760735
      },
      "miles" : {
        "estimated_diameter_min" : 0.2079246394,
        "estimated_diameter_max" : 0.464933628
      },
      "feet" : {
        "estimated_diameter_min" : 1097.8424710066,
        "estimated_diameter_max" : 2454.8503937571
      }
    },
    "is_potentially_hazardous_asteroid" : false,
    "close_approach_data" : [ {
      "close_approach_date" : "2001-08-28",
      "epoch_date_close_approach" : 998982000000,
      "relative_velocity" : {
        "kilometers_per_second" : "1.6809184108",
        "kilometers_per_hour" : "6051.30627899",
        "miles_per_hour" : "3760.0463931869"
      },
      "miss_distance" : {
        "astronomical" : "0.3621483237",
        "lunar" : "140.8757019043",
        "kilometers" : "54176616",
        "miles" : "33663788"
      },
      "orbiting_body" : "Earth"
    } ],
    "orbital_data" : {
      "orbit_id" : "6",
      "orbit_determination_date" : "2017-04-06 09:16:05",
      "first_observation_date" : "2001-09-11",
      "last_observation_date" : "2001-10-17",
      "data_arc_in_days" : 36,
      "observations_used" : 21,
      "orbit_uncertainty" : "7",
      "minimum_orbit_intersection" : ".287786",
      "jupiter_tisserand_invariant" : "3.605",
      "epoch_osculation" : "2458600.5",
      "eccentricity" : ".3999249874803433",
      "semi_major_axis" : "2.136445441934967",
      "inclination" : "5.326303229956802",
      "ascending_node_longitude" : "38.51417073736864",
      "orbital_period" : "1140.607274428344",
      "perihelion_distance" : "1.282027525316689",
      "perihelion_argument" : "280.7785763368589",
      "aphelion_distance" : "2.990863358553244",
      "perihelion_time" : "2458964.945488835233",
      "mean_anomaly" : "244.9732252966391",
      "mean_motion" : ".3156213431835481",
      "equinox" : "J2000",
      "orbit_class" : {
        "orbit_class_type" : "AMO",
        "orbit_class_range" : "1.017 AU < q (perihelion) < 1.3 AU",
        "orbit_class_description" : "Near-Earth asteroid orbits similar to that of 1221 Amor"
      }
    },
    "is_sentry_object" : false
  }, {
    "links" : {
      "self" : "https://api.nasa.gov/neo/rest/v1/neo/3092365?api_key=jqAGvNAwUIBu4fl9FSOjdm3V4F7hIglRzI6pdX9d"
    },
    "neo_reference_id" : "3092365",
    "name" : "(2001 SX269)",
    "designation" : "2001 SX269",
    "nasa_jpl_url" : "http://ssd.jpl.nasa.gov/sbdb.cgi?sstr=3092365",
    "absolute_magnitude_h" : 21.5,
    "estimated_diameter" : {
      "kilometers" : {
        "estimated_diameter_min" : 0.1332155667,
        "estimated_diameter_max" : 0.2978790628
      },
      "meters" : {
        "estimated_diameter_min" : 133.2155666981,
        "estimated_diameter_max" : 297.8790627982
      },
      "miles" : {
        "estimated_diameter_min" : 0.0827762899,
        "estimated_diameter_max" : 0.1850934111
      },
      "feet" : {
        "estimated_diameter_min" : 437.0589598459,
        "estimated_diameter_max" : 977.2935443908
      }
    },
    "is_potentially_hazardous_asteroid" : false,
    "close_approach_data" : [ {
      "close_approach_date" : "2001-09-11",
      "epoch_date_close_approach" : 1000191600000,
      "relative_velocity" : {
        "kilometers_per_second" : "2.5130641581",
        "kilometers_per_hour" : "9047.0309692114",
        "miles_per_hour" : "5621.4732152858"
      },
      "miss_distance" : {
        "astronomical" : "0.233629281",
        "lunar" : "90.8817901611",
        "kilometers" : "34950444",
        "miles" : "21717200"
      },
      "orbiting_body" : "Earth"
    } ],
    "orbital_data" : {
      "orbit_id" : "10",
      "orbit_determination_date" : "2017-04-06 09:16:05",
      "first_observation_date" : "2001-09-23",
      "last_observation_date" : "2001-10-13",
      "data_arc_in_days" : 20,
      "observations_used" : 22,
      "orbit_uncertainty" : "7",
      "minimum_orbit_intersection" : ".225003",
      "jupiter_tisserand_invariant" : "3.893",
      "epoch_osculation" : "2458600.5",
      "eccentricity" : ".3460229678081412",
      "semi_major_axis" : "1.880002571346177",
      "inclination" : "4.022947345475264",
      "ascending_node_longitude" : "320.1700961341366",
      "orbital_period" : "941.534182541373",
      "perihelion_distance" : "1.229478502122036",
      "perihelion_argument" : "29.54050779940426",
      "aphelion_distance" : "2.530526640570318",
      "perihelion_time" : "2458751.631767209381",
      "mean_anomaly" : "302.2140616833246",
      "mean_motion" : ".3823546788585988",
      "equinox" : "J2000",
      "orbit_class" : {
        "orbit_class_type" : "AMO",
        "orbit_class_range" : "1.017 AU < q (perihelion) < 1.3 AU",
        "orbit_class_description" : "Near-Earth asteroid orbits similar to that of 1221 Amor"
      }
    },
    "is_sentry_object" : false
  }, {
    "links" : {
      "self" : "https://api.nasa.gov/neo/rest/v1/neo/3092341?api_key=jqAGvNAwUIBu4fl9FSOjdm3V4F7hIglRzI6pdX9d"
    },
    "neo_reference_id" : "3092341",
    "name" : "(2001 SD270)",
    "designation" : "2001 SD270",
    "nasa_jpl_url" : "http://ssd.jpl.nasa.gov/sbdb.cgi?sstr=3092341",
    "absolute_magnitude_h" : 21.395,
    "estimated_diameter" : {
      "kilometers" : {
        "estimated_diameter_min" : 0.1398153894,
        "estimated_diameter_max" : 0.312636715
      },
      "meters" : {
        "estimated_diameter_min" : 139.8153894066,
        "estimated_diameter_max" : 312.6367150139
      },
      "miles" : {
        "estimated_diameter_min" : 0.0868772283,
        "estimated_diameter_max" : 0.1942633882
      },
      "feet" : {
        "estimated_diameter_min" : 458.7119221809,
        "estimated_diameter_max" : 1025.7110400861
      }
    },
    "is_potentially_hazardous_asteroid" : false,
    "close_approach_data" : [ {
      "close_approach_date" : "2001-10-07",
      "epoch_date_close_approach" : 1002438000000,
      "relative_velocity" : {
        "kilometers_per_second" : "15.0236558679",
        "kilometers_per_hour" : "54085.1611242704",
        "miles_per_hour" : "33606.4158108002"
      },
      "miss_distance" : {
        "astronomical" : "0.163838189",
        "lunar" : "63.7330551147",
        "kilometers" : "24509844",
        "miles" : "15229712"
      },
      "orbiting_body" : "Earth"
    } ],
    "orbital_data" : {
      "orbit_id" : "12",
      "orbit_determination_date" : "2017-04-06 09:16:04",
      "first_observation_date" : "2001-09-26",
      "last_observation_date" : "2001-10-06",
      "data_arc_in_days" : 10,
      "observations_used" : 27,
      "orbit_uncertainty" : "9",
      "minimum_orbit_intersection" : ".161758",
      "jupiter_tisserand_invariant" : "3.180",
      "epoch_osculation" : "2452181.5",
      "eccentricity" : ".5551458886295237",
      "semi_major_axis" : "2.422884644708948",
      "inclination" : "24.58297394623263",
      "ascending_node_longitude" : "4.304625788565626",
      "orbital_period" : "1377.518795261431",
      "perihelion_distance" : "1.077830195575171",
      "perihelion_argument" : "42.52465914281435",
      "aphelion_distance" : "3.767939093842724",
      "perihelion_time" : "2452221.297094849982",
      "mean_anomaly" : "349.5994492450649",
      "mean_motion" : ".2613394468651717",
      "equinox" : "J2000",
      "orbit_class" : {
        "orbit_class_type" : "AMO",
        "orbit_class_range" : "1.017 AU < q (perihelion) < 1.3 AU",
        "orbit_class_description" : "Near-Earth asteroid orbits similar to that of 1221 Amor"
      }
    },
    "is_sentry_object" : false
  } ]
}